COMSATBW-1              
1 35943U 09054B   17009.85743281  .00000017  00000-0  00000-0 0  9995
2 35943   0.0407  86.5981 0003050 201.7866 192.8458  1.00269717 26763
NSS-12                  
1 36032U 09058A   17008.54085009  .00000068  00000-0  00000-0 0  9997
2 36032   0.0353 312.8064 0002776 343.4195  63.7358  1.00271936 26382
THOR 6                  
1 36033U 09058B   17010.18193306 -.00000018  00000-0  00000+0 0  9996
2 36033   0.0165 211.7892 0002049  69.7765 252.9590  1.00270709 26426
INTELSAT 14 (IS-14)     
1 36097U 09064A   17009.82063386 -.00000281  00000-0  00000+0 0  9998
2 36097   0.0160  27.4844 0003224 272.5883  59.8812  1.00270038 26168
EUTELSAT 36B            
1 36101U 09065A   17010.23336390  .00000147  00000-0  00000+0 0  9990
2 36101   0.0638  21.4130 0004915 273.2245 295.2175  1.00273608 26269
INTELSAT 15 (IS-15)     
1 36106U 09067A   17009.79622057 -.00000192  00000-0  00000+0 0  9995
2 36106   0.0173  59.5624 0002589 227.8978 193.8271  1.00271050 26057
DIRECTV 12              
1 36131U 09075A   17010.27724414 -.00000110  00000-0  00000+0 0  9997
2 36131   0.0076 238.4071 0001003 101.0643 127.4955  1.00265055 25849
BEIDOU G1               
1 36287U 10001A   17009.69978942 -.00000293  00000-0  10000-3 0  9998
2 36287   1.5401   9.8423 0004765 236.5677 254.8444  1.00265489 25624
RADUGA-1M 2             
1 36358U 10002A   17009.08695463 -.00000189  00000-0  00000+0 0  9994
2 36358   0.0144  36.7085 0003407 271.6311 276.7645  1.00271593 25451
SDO                     
1 36395U 10005A   17010.37292640 -.00000072  00000-0  00000+0 0  9993
2 36395  28.5979 143.2665 0001983 145.3235 213.9470  1.00269186 25487
INTELSAT 16 (IS-16)     
1 36397U 10006A   17010.25516361 -.00000293  00000-0  00000+0 0  9997
2 36397   0.0323 293.9366 0002927  17.6144 192.1626  1.00270216 25192
GOES 15                 
1 36411U 10008A   17010.06923540  .00000080  00000-0  00000+0 0  9999
2 36411   0.1218 259.8584 0002097 305.3400 154.7765  1.00258814 25149
ECHOSTAR 14             
1 36499U 10010A   17009.58723646 -.00000006  00000-0  00000-0 0  9998
2 36499   0.0164 354.2516 0002966 290.2888 277.2603  1.00271705 12036
SES-1                   
1 36516U 10016A   17009.66416889 -.00000121  00000-0  00000+0 0  9998
2 36516   0.0334 311.2223 0002161 322.9128 333.3428  1.00271140 24585
ASTRA 3B                
1 36581U 10021A   17009.79072803  .00000129  00000-0  00000+0 0  9991
2 36581   0.0347  14.6658 0002857 276.7048 126.2841  1.00269158 24108
COMSATBW-2              
1 36582U 10021B   17010.23542088  .00000080  00000-0  00000+0 0  9996
2 36582   0.0244 350.2623 0003158 314.9191 262.6895  1.00273533 24448
BEIDOU G3               
1 36590U 10024A   17009.83405747 -.00000362  00000-0  00000+0 0  9996
2 36590   1.4412  30.5564 0006606 301.7847 187.9030  1.00264330 24236
BADR-5                  
1 36592U 10025A   17007.96347494  .00000142  00000-0  00000+0 0  9990
2 36592   0.0136  39.8897 0003500 209.9127 230.7463  1.00271358 24333
COMS 1                  
1 36744U 10032A   17009.91115296 -.00000352  00000-0  00000-0 0  9992
2 36744   0.0129  67.5244 0001257 221.3455 276.9476  1.00271398 16541
ARABSAT-5A              
1 36745U 10032B   17009.92556007  .00000146  00000-0  00000-0 0  9993
2 36745   0.0518  21.0449 0002925 266.5723 185.6958  1.00273469 24101
ECHOSTAR 15             
1 36792U 10034A   17010.33424571 -.00000291  00000-0  00000+0 0  9995
2 36792   0.0185  40.1546 0002443 255.5907 232.9769  1.00272078 23852
NILESAT 201             
1 36830U 10037A   17010.24272565 -.00000066  00000-0  00000+0 0  9995
2 36830   0.0596 211.0984 0003546  84.0002 255.1910  1.00272950 23744
RASCOM-QAF 1R           
1 36831U 10037B   17009.68785503  .00000012  00000-0  00000-0 0  9994
2 36831   0.0248  73.0691 0006530 210.8083  76.0360  1.00272729 23769
CHINASAT 6A (ZX 6A)     
1 37150U 10042A   17009.91130714 -.00000361  00000-0  00000+0 0  9996
2 37150   0.0352 225.2898 0001481 246.5828  90.8506  1.00267982 23359
QZS-1 (MICHIBIKI)       
1 37158U 10045A   17008.74492694 -.00000110  00000-0  00000+0 0  9997
2 37158  40.7788 161.6458 0747409 269.9733  83.4602  1.00268435 23165
XM-5                    
1 37185U 10053A   17009.92262319 -.00000212  00000-0  00000-0 0  9990
2 37185   0.0167  26.8973 0000292 264.5613  65.1010  1.00271314 22944
BSAT-3B                 
1 37207U 10056B   17009.83405747 -.00000357  00000-0  00000+0 0  9991
2 37207   0.0885 300.0688 0005511   5.6761 213.9126  1.00270921 22723
BEIDOU G4               
1 37210U 10057A   17009.76517819 -.00000119  00000-0  00000+0 0  9998
2 37210   0.8009  46.1083 0007525 190.9627 307.9264  1.00271326 22734
SKYTERRA 1              
1 37218U 10061A   17008.89393047 -.00000118  00000-0  00000-0 0  9999
2 37218   3.4198 328.8590 0001329 257.8261 102.4195  1.00270706 22659
ZHONGXING-20A           
1 37234U 10064A   17010.22913424 -.00000346  00000-0  00000+0 0  9999
2 37234   0.0432 140.2359 0005123 170.7010  11.4598  1.00267084 22483
HYLAS 1                 
1 37237U 10065A   17010.31136688 -.00000243  00000-0  00000+0 0  9998
2 37237   0.0272  26.0469 0002324 266.3398 256.2268  1.00268696 22463
INTELSAT 17 (IS-17)     
1 37238U 10065B   17009.85712642 -.00000009  00000-0  00000-0 0  9997
2 37238   0.0136 261.7648 0002402  37.4171 184.9450  1.00272459 18886
EUTELSAT KA-SAT 9A      
1 37258U 10069A   17008.67389893  .00000057  00000-0  00000+0 0  9991
2 37258   0.0496 291.4944 0002883 343.0045  85.4580  1.00270670 22264
HISPASAT 1E             
1 37264U 10070A   17010.13163219 -.00000224  00000-0  00000+0 0  9993
2 37264   0.0276 117.8892 0002816 153.6094 215.7282  1.00271344 22126
KOREASAT 6              
1 37265U 10070B   17009.90779795 -.00000370  00000-0  00000-0 0  9992
2 37265   0.0108  42.7084 0002043 239.7346 269.9799  1.00270550 22232
ELEKTRO-L 1 (GOMS 2)    
1 37344U 11001A   17010.14955810 -.00000183  00000-0  00000+0 0  9998
2 37344   2.1177  78.4597 0003731 258.4985 164.7415  1.00244825 21924
BEIDOU IGSO 3           
1 37384U 11013A   17010.48337527 -.00000205  00000-0  10000-3 0  9991
2 37384  57.6258  74.5889 0026860 209.7651 117.1324  1.00251118 21138
INTELSAT NEW DAWN       
1 37392U 11016A   17009.92494924  .00000148  00000-0  00000-0 0  9996
2 37392   0.0100 307.6798 0000715 309.2265 218.4984  1.00272338 18750
YAHSAT 1A               
1 37393U 11016B   17009.60162451  .00000094  00000-0  00000+0 0  9998
2 37393   0.0195  32.0449 0002659 271.2816  75.0701  1.00271008 21016
TELSTAR 14R             
1 37602U 11021A   17010.50350399 -.00000289  00000-0  00000+0 0  9995
2 37602   0.0214  46.0968 0002345 238.1749 304.1897  1.00269980 21244
GSAT-8                  
1 37605U 11022A   17010.17155497  .00000076  00000-0  00000+0 0  9997
2 37605   0.1106 277.5623 0009122 350.3785 318.8070  1.00272947 20694
ST-2                    
1 37606U 11022B   17009.64419067 -.00000218  00000-0  00000+0 0  9993
2 37606   0.0253  49.7515 0002160 250.6882 128.8384  1.00270773 20693
CHINASAT 10 (ZX 10)     
1 37677U 11026A   17009.68381541 -.00000359  00000-0  00000-0 0  9991
2 37677   0.0113  62.8280 0005719 197.9670 205.2707  1.00270200 20427
TIANLIAN 1-02           
1 37737U 11032A   17009.76350483  .00000020  00000-0  00000-0 0  9999
2 37737   2.2692  78.2338 0010329 187.8559 295.0607  1.00268826 20171
GSAT-12                 
1 37746U 11034A   17009.91149497 -.00000172  00000-0  00000-0 0  9998
2 37746   0.0399  87.1285 0002570  32.0994  41.5104  1.00269843  8952
SES-3                   
1 37748U 11035A   17010.20777090 -.00000110  00000-0  00000+0 0  9992
2 37748   0.0477 292.4112 0003275 355.0369 154.2481  1.00272344 20154
KAZSAT-2                
1 37749U 11035B   17009.64315326 -.00000204  00000-0  00000+0 0  9993
2 37749   0.0521 215.8005 0001689 118.5814  93.0289  1.00271082 20029
ASTRA 1N                
1 37775U 11041A   17009.66794448  .00000113  00000-0  00000+0 0  9995
2 37775   0.0499  21.5808 0002986 320.2526  27.1825  1.00269851 19852
BSAT-3C (JCSAT-110R)    
1 37776U 11041B   17009.83405747 -.00000358  00000-0  00000+0 0  9998
2 37776   0.0155 351.8502 0000350 338.7479 189.1729  1.00271200 19972
PAKSAT-1R               
1 37779U 11042A   17009.92323861  .00000146  00000-0  00000-0 0  9993
2 37779   0.0437 215.8471 0003888  80.4348 183.7429  1.00274221 19936
CHINASAT 1A (ZX 1A)     
1 37804U 11047A   17009.65214757 -.00000345  00000-0  00000-0 0  9992
2 37804   0.0545 137.4464 0002176 174.2903 162.2081  1.00267883 19532
COSMOS 2473             
1 37806U 11048A   17008.73617036 -.00000112  00000-0  00000-0 0  9992
2 37806   0.0620 107.5651 0002825 208.8847  43.5174  1.00271389 19491
SES-2                   
1 37809U 11049A   17010.21923249 -.00000204  00000-0  00000+0 0  9999
2 37809   0.0316 309.8240 0003021 322.8060 189.2095  1.00271217 19478
ARABSAT-5C              
1 37810U 11049B   17010.23496935  .00000115  00000-0  00000+0 0  9990
2 37810   0.0606  10.6010 0002817 280.5123 283.3974  1.00272851 19361
EUTELSAT 7 WEST A       
1 37816U 11051A   17009.71617632 -.00000067  00000-0  00000-0 0  9997
2 37816   0.0584  22.7616 0004863 232.7536 104.4171  1.00271880 19361
QUETZSAT 1              
1 37826U 11054A   17010.10395534 -.00000250  00000-0  00000+0 0  9993
2 37826   0.0311 319.5670 0002962 331.4648 139.1927  1.00271032 19550
INTELSAT 18 (IS-18)     
1 37834U 11056A   17010.19515450  .00000044  00000-0  00000+0 0  9994
2 37834   0.0150 350.1525 0002694 310.3370  59.6470  1.00271518 19312
EUTELSAT 16A            
1 37836U 11057A   17010.10569984  .00000095  00000-0  00000+0 0  9995
2 37836   0.0622  10.7219 0004619 280.2588 232.8707  1.00270701 19245
VIASAT-1                
1 37843U 11059A   17010.42435465 -.00000032  00000-0  00000+0 0  9998
2 37843   0.0226  34.2349 0002817 253.7829 219.7771  1.00269440 19736
